[{"OBJECT_NAME":"IRIDIUM 152","OBJECT_ID":"2018-047D","EPOCH":"2026-03-02T16:54:58.289184","MEAN_MOTION":14.34218219,"ECCENTRICITY":0.00022769,"INCLINATION":86.3987,"RA_OF_ASC_NODE":132.8615,"ARG_OF_PERICENTER":93.0223,"MEAN_ANOMALY":267.1234,"EPHEMERIS_TYPE":0,"CLASSIFICATION_TYPE":"U","NORAD_CAT_ID":43479,"ELEMENT_SET_NO":999,"REV_AT_EPOCH":40722,"BSTAR":7.4276738e-5,"MEAN_MOTION_DOT":2.28e-6,"MEAN_MOTION_DDOT":0},{"OBJECT_NAME":"IRIDIUM 147","OBJECT_ID":"2018-047E","EPOCH":"2026-03-02T17:04:06.220704","MEAN_MOTION":14.34218361,"ECCENTRICITY":0.00022041,"INCLINATION":86.3989,"RA_OF_ASC_NODE":132.8621,"ARG_OF_PERICENTER":99.4452,"MEAN_ANOMALY":260.6993,"EPHEMERIS_TYPE":0,"CLASSIFICATION_TYPE":"U","NORAD_CAT_ID":43480,"ELEMENT_SET_NO":999,"REV_AT_EPOCH":40722,"BSTAR":3.533713e-5,"MEAN_MOTION_DOT":1.19e-6,"MEAN_MOTION_DDOT":0},{"OBJECT_NAME":"IRIDIUM 110","OBJECT_ID":"2018-047F","EPOCH":"2026-03-02T17:13:14.360448","MEAN_MOTION":14.34217753,"ECCENTRICITY":0.00025607,"INCLINATION":86.3991,"RA_OF_ASC_NODE":132.9484,"ARG_OF_PERICENTER":90.4593,"MEAN_ANOMALY":269.6896,"EPHEMERIS_TYPE":0,"CLASSIFICATION_TYPE":"U","NORAD_CAT_ID":43481,"ELEMENT_SET_NO":999,"REV_AT_EPOCH":40721,"BSTAR":1.1034809e-5,"MEAN_MOTION_DOT":5.1e-7,"MEAN_MOTION_DDOT":0},{"OBJECT_NAME":"IRIDIUM 162","OBJECT_ID":"2018-047G","EPOCH":"2026-03-02T17:45:23.668128","MEAN_MOTION":14.43281218,"ECCENTRICITY":0.00021229,"INCLINATION":86.4511,"RA_OF_ASC_NODE":132.8788,"ARG_OF_PERICENTER":91.853,"MEAN_ANOMALY":268.2914,"EPHEMERIS_TYPE":0,"CLASSIFICATION_TYPE":"U","NORAD_CAT_ID":43482,"ELEMENT_SET_NO":999,"REV_AT_EPOCH":40977,"BSTAR":0.00010752253,"MEAN_MOTION_DOT":3.82e-6,"MEAN_MOTION_DDOT":0},{"OBJECT_NAME":"IRIDIUM 160","OBJECT_ID":"2018-061A","EPOCH":"2026-03-02T14:14:46.508640","MEAN_MOTION":14.34218157,"ECCENTRICITY":0.0002372,"INCLINATION":86.3926,"RA_OF_ASC_NODE":101.386,"ARG_OF_PERICENTER":92.7525,"MEAN_ANOMALY":267.3943,"EPHEMERIS_TYPE":0,"CLASSIFICATION_TYPE":"U","NORAD_CAT_ID":43569,"ELEMENT_SET_NO":999,"REV_AT_EPOCH":39809,"BSTAR":2.7941e-5,"MEAN_MOTION_DOT":9.8e-7,"MEAN_MOTION_DDOT":0},{"OBJECT_NAME":"IRIDIUM 166","OBJECT_ID":"2018-061B","EPOCH":"2026-03-02T14:51:18.468864","MEAN_MOTION":14.34218115,"ECCENTRICITY":0.0002176,"INCLINATION":86.3922,"RA_OF_ASC_NODE":101.3272,"ARG_OF_PERICENTER":96.3897,"MEAN_ANOMALY":263.7547,"EPHEMERIS_TYPE":0,"CLASSIFICATION_TYPE":"U","NORAD_CAT_ID":43570,"ELEMENT_SET_NO":999,"REV_AT_EPOCH":39812,"BSTAR":4.7418e-5,"MEAN_MOTION_DOT":1.53e-6,"MEAN_MOTION_DDOT":0},{"OBJECT_NAME":"IRIDIUM 158","OBJECT_ID":"2018-061C","EPOCH":"2026-03-02T15:46:06.332736","MEAN_MOTION":14.3421641,"ECCENTRICITY":0.00020291,"INCLINATION":86.3928,"RA_OF_ASC_NODE":101.3209,"ARG_OF_PERICENTER":89.4651,"MEAN_ANOMALY":270.6778,"EPHEMERIS_TYPE":0,"CLASSIFICATION_TYPE":"U","NORAD_CAT_ID":43571,"ELEMENT_SET_NO":999,"REV_AT_EPOCH":39809,"BSTAR":-2.0442926e-5,"MEAN_MOTION_DOT":-3.7e-7,"MEAN_MOTION_DDOT":0},{"OBJECT_NAME":"IRIDIUM 165","OBJECT_ID":"2018-061D","EPOCH":"2026-03-02T23:04:30.456768","MEAN_MOTION":14.34217979,"ECCENTRICITY":0.0002183,"INCLINATION":86.3921,"RA_OF_ASC_NODE":101.2378,"ARG_OF_PERICENTER":96.4442,"MEAN_ANOMALY":263.7003,"EPHEMERIS_TYPE":0,"CLASSIFICATION_TYPE":"U","NORAD_CAT_ID":43572,"ELEMENT_SET_NO":999,"REV_AT_EPOCH":39816,"BSTAR":3.3795547e-5,"MEAN_MOTION_DOT":1.14e-6,"MEAN_MOTION_DDOT":0},{"OBJECT_NAME":"IRIDIUM 155","OBJECT_ID":"2018-061E","EPOCH":"2026-03-02T15:27:50.443776","MEAN_MOTION":14.3421755,"ECCENTRICITY":0.00019496,"INCLINATION":86.3922,"RA_OF_ASC_NODE":101.2447,"ARG_OF_PERICENTER":92.6432,"MEAN_ANOMALY":267.4987,"EPHEMERIS_TYPE":0,"CLASSIFICATION_TYPE":"U","NORAD_CAT_ID":43573,"ELEMENT_SET_NO":999,"REV_AT_EPOCH":39808,"BSTAR":-2.1326625e-5,"MEAN_MOTION_DOT":-4.0e-7,"MEAN_MOTION_DDOT":0},{"OBJECT_NAME":"IRIDIUM 154","OBJECT_ID":"2018-061F","EPOCH":"2026-03-02T15:00:27.750816","MEAN_MOTION":14.34220996,"ECCENTRICITY":0.0002188,"INCLINATION":86.3926,"RA_OF_ASC_NODE":101.3816,"ARG_OF_PERICENTER":98.9479,"MEAN_ANOMALY":261.1965,"EPHEMERIS_TYPE":0,"CLASSIFICATION_TYPE":"U","NORAD_CAT_ID":43574,"ELEMENT_SET_NO":999,"REV_AT_EPOCH":39813,"BSTAR":9.7184e-5,"MEAN_MOTION_DOT":2.92e-6,"MEAN_MOTION_DDOT":0},{"OBJECT_NAME":"IRIDIUM 163","OBJECT_ID":"2018-061G","EPOCH":"2026-03-02T14:33:02.504736","MEAN_MOTION":14.34217719,"ECCENTRICITY":0.0002258,"INCLINATION":86.3924,"RA_OF_ASC_NODE":101.3084,"ARG_OF_PERICENTER":91.5058,"MEAN_ANOMALY":268.6396,"EPHEMERIS_TYPE":0,"CLASSIFICATION_TYPE":"U","NORAD_CAT_ID":43575,"ELEMENT_SET_NO":999,"REV_AT_EPOCH":39810,"BSTAR":1.0391e-5,"MEAN_MOTION_DOT":4.9e-7,"MEAN_MOTION_DDOT":0},{"OBJECT_NAME":"IRIDIUM 156","OBJECT_ID":"2018-061H","EPOCH":"2026-03-02T15:36:58.455648","MEAN_MOTION":14.34217887,"ECCENTRICITY":0.00020298,"INCLINATION":86.3922,"RA_OF_ASC_NODE":101.2967,"ARG_OF_PERICENTER":93.4733,"MEAN_ANOMALY":266.6695,"EPHEMERIS_TYPE":0,"CLASSIFICATION_TYPE":"U","NORAD_CAT_ID":43576,"ELEMENT_SET_NO":999,"REV_AT_EPOCH":39810,"BSTAR":1.6675015e-5,"MEAN_MOTION_DOT":6.6e-7,"MEAN_MOTION_DDOT":0},{"OBJECT_NAME":"IRIDIUM 164","OBJECT_ID":"2018-061J","EPOCH":"2026-03-02T15:09:34.475328","MEAN_MOTION":14.34218286,"ECCENTRICITY":0.0002325,"INCLINATION":86.3925,"RA_OF_ASC_NODE":101.3435,"ARG_OF_PERICENTER":98.049,"MEAN_ANOMALY":262.097,"EPHEMERIS_TYPE":0,"CLASSIFICATION_TYPE":"U","NORAD_CAT_ID":43577,"ELEMENT_SET_NO":999,"REV_AT_EPOCH":39814,"BSTAR":3.3661e-5,"MEAN_MOTION_DOT":1.14e-6,"MEAN_MOTION_DDOT":0},{"OBJECT_NAME":"IRIDIUM 159","OBJECT_ID":"2018-061K","EPOCH":"2026-03-02T14:23:54.523968","MEAN_MOTION":14.34217283,"ECCENTRICITY":0.0002276,"INCLINATION":86.3923,"RA_OF_ASC_NODE":101.2953,"ARG_OF_PERICENTER":92.4471,"MEAN_ANOMALY":267.6985,"EPHEMERIS_TYPE":0,"CLASSIFICATION_TYPE":"U","NORAD_CAT_ID":43578,"ELEMENT_SET_NO":999,"REV_AT_EPOCH":39810,"BSTAR":-3.8964e-5,"MEAN_MOTION_DOT":-8.9e-7,"MEAN_MOTION_DDOT":0},{"OBJECT_NAME":"IRIDIUM 180","OBJECT_ID":"2019-002A","EPOCH":"2026-03-02T22:45:30.928032","MEAN_MOTION":14.34217885,"ECCENTRICITY":0.00022923,"INCLINATION":86.3962,"RA_OF_ASC_NODE":37.9834,"ARG_OF_PERICENTER":86.0503,"MEAN_ANOMALY":274.0954,"EPHEMERIS_TYPE":0,"CLASSIFICATION_TYPE":"U","NORAD_CAT_ID":43922,"ELEMENT_SET_NO":999,"REV_AT_EPOCH":37376,"BSTAR":1.4965787e-5,"MEAN_MOTION_DOT":6.2e-7,"MEAN_MOTION_DDOT":0},{"OBJECT_NAME":"IRIDIUM 176","OBJECT_ID":"2019-002B","EPOCH":"2026-03-02T22:12:39.259296","MEAN_MOTION":14.72261761,"ECCENTRICITY":0.00023418,"INCLINATION":86.6082,"RA_OF_ASC_NODE":37.951,"ARG_OF_PERICENTER":87.5035,"MEAN_ANOMALY":272.645,"EPHEMERIS_TYPE":0,"CLASSIFICATION_TYPE":"U","NORAD_CAT_ID":43923,"ELEMENT_SET_NO":999,"REV_AT_EPOCH":38361,"BSTAR":0.0001944215,"MEAN_MOTION_DOT":1.251e-5,"MEAN_MOTION_DDOT":0},{"OBJECT_NAME":"IRIDIUM 168","OBJECT_ID":"2019-002C","EPOCH":"2026-03-02T22:36:22.692384","MEAN_MOTION":14.342201,"ECCENTRICITY":0.00022185,"INCLINATION":86.3962,"RA_OF_ASC_NODE":38.0603,"ARG_OF_PERICENTER":86.7744,"MEAN_ANOMALY":273.3705,"EPHEMERIS_TYPE":0,"CLASSIFICATION_TYPE":"U","NORAD_CAT_ID":43924,"ELEMENT_SET_NO":999,"REV_AT_EPOCH":37374,"BSTAR":0.00012333676,"MEAN_MOTION_DOT":3.65e-6,"MEAN_MOTION_DDOT":0}]
